VCC A                   
1 44428U 98067QN  21058.59569716  .00027954  00000-0  26809-3 0  9991
2 44428  51.6377 131.0017 0001260 235.1545 124.9332 15.66409343 94356
ENTRYSAT                
1 44429U 98067QP  21058.43840721  .00043540  00000-0  35265-3 0  9998
2 44429  51.6330 126.8469 0000850 266.1531  93.9369 15.70327527 94399
VCC C                   
1 44430U 98067QQ  21058.41004682  .00081832  00000-0  48851-3 0  9997
2 44430  51.6300 120.6289 0002491 341.3660  18.7248 15.77176322 93305
VCC B                   
1 44431U 98067QR  21058.45018473  .00029426  00000-0  27935-3 0  9996
2 44431  51.6349 131.4680 0001355 233.9562 126.1309 15.66633922 94270
RWASAT-1                
1 44790U 98067QV  21058.83008193  .00010945  00000-0  15478-3 0  9999
2 44790  51.6405 149.5854 0006364 242.2218 219.3115 15.57072338 72353
AQT-D                   
1 44791U 98067QW  21058.65910932  .00012013  00000-0  16878-3 0  9996
2 44791  51.6413 150.9751 0005798 218.3961 141.6619 15.57141587 72320
NARSSCUBE-1             
1 44792U 98067QX  21058.60341825  .00021204  00000-0  25502-3 0  9997
2 44792  51.6385 146.7806 0003981 248.0993 111.9577 15.60786664 72373
STPSAT-4                
1 45043U 98067QY  21058.45053543  .00006662  00000-0  11364-3 0  9999
2 45043  51.6411 161.5011 0004951 228.0447 132.0122 15.52635110 61408
HARP                    
1 45256U 98067QZ  21058.65597194  .00013863  00000-0  20347-3 0  9994
2 45256  51.6421 156.1691 0006186 225.2110 134.8379 15.55798286 58167
1998-067RA              
1 45257U 98067RA  21058.63537497  .00010310  00000-0  15701-3 0  9995
2 45257  51.6407 156.7498 0006879 226.8028 133.2389 15.55114102 58159
PHOENIX                 
1 45258U 98067RB  21058.44743668  .00008874  00000-0  13976-3 0  9998
2 45258  51.6404 158.4805 0005309 205.1112 154.9621 15.54395343 58087
1998-067RC              
1 45259U 98067RC  21058.45177681  .00018369  00000-0  25237-3 0  9999
2 45259  51.6397 155.5223 0005855 227.5136 132.5362 15.57345911 58152
CRYOCUBE                
1 45260U 98067RD  21058.61919299  .00021065  00000-0  28440-3 0  9994
2 45260  51.6398 154.3934 0006128 230.5009 129.5442 15.57713875 58195
AZTECHSAT-1             
1 45261U 98067RE  21058.65430478  .00022276  00000-0  28324-3 0  9992
2 45261  51.6387 152.3718 0005940 232.1120 127.9336 15.59276910 58207
RADSAT-U                
1 45262U 98067RF  21058.28896133  .00012997  00000-0  19444-3 0  9998
2 45262  51.6421 158.2171 0005852 261.0062  99.0267 15.55340216 58112
QARMAN                  
1 45263U 98067RG  21058.43215577  .00018720  00000-0  25866-3 0  9998
2 45263  51.6394 156.1386 0005872 223.5345 136.5184 15.57178017 58177
SORTIE                  
1 45264U 98067RH  21058.44344493  .00007191  00000-0  11940-3 0  9998
2 45264  51.6421 159.9798 0006798 228.1416 131.8994 15.53252225 58093
PROGRESS-MS 14          
1 45595U 20026A   21058.60437575  .00001982  00000-0  44099-4 0  9991
2 45595  51.6459 164.7296 0003088  56.0030 329.1758 15.49016549271614
G-SAT                   
1 45597U 98067RK  21058.43242733  .00012672  00000-0  19234-3 0  9994
2 45597  51.6408 159.1544 0004233 287.0104  73.0423 15.54976016 47474
QUETZAL-1               
1 45598U 98067RL  21058.67887976  .00015468  00000-0  22644-3 0  9990
2 45598  51.6407 157.7977 0002441 315.7767  44.3029 15.55777349 47440
RED-EYE 2 (MERLOT)      
1 45800U 98067RM  21058.68874834  .00006639  00000-0  11582-3 0  9995
2 45800  51.6420 161.6031 0000865 250.6546 109.4350 15.52002133 39637
RED-EYE 3 (CABERNET)    
1 45809U 98067RN  21058.75369339  .00007212  00000-0  12512-3 0  9993
2 45809  51.6417 161.2871 0001057 233.7217 126.3675 15.52009257 38621
DEMI                    
1 45916U 98067RP  21058.29942827  .00016765  00000-0  25226-3 0  9999
2 45916  51.6415 161.2660 0001924 166.1924 193.9120 15.54956575 35573
TECHEDSAT 10            
1 45917U 98067RQ  21058.67867032  .00395462  00000-0  14571-2 0  9990
2 45917  51.6285 144.9390 0007432 349.3895  10.6951 15.86603408 35777
SOYUZ-MS 17             
1 46613U 20072A   21058.60437575  .00001982  00000-0  44099-4 0  9994
2 46613  51.6459 164.7296 0003088  56.0030 329.1758 15.49016549271616
CREW DRAGON 1           
1 46920U 20084A   21058.60437575  .00001982  00000-0  44099-4 0  9998
2 46920  51.6459 164.7296 0003088  56.0030 329.1758 15.49016549271617
SPOC                    
1 46921U 98067RR  21058.44606039  .00009526  00000-0  16166-3 0  9995
2 46921  51.6428 163.7418 0002309  29.6990 330.4130 15.52205899 17760
BOBCAT-1                
1 46922U 98067RS  21058.48391911  .00013739  00000-0  22361-3 0  9995
2 46922  51.6434 163.2499 0001966  28.7746 331.3353 15.52958869 17735
